[Satellite]
VERSION=1.1
NAME=FLOCK 2E-7
NICKNAME=FLOCK 2E-7
TLE1=1 41565U 98067JP  17186.27268297  .00013285  00000-0  11177-3 0  9996
TLE2=2 41565  51.6353 283.0140 0002563 193.3503 166.7427 15.70228852 62544
